[{"OBJECT_NAME":"YAOGAN-35 01C","OBJECT_ID":"2021-101D","EPOCH":"2026-03-09T23:21:58.673664","MEAN_MOTION":15.23336833,"ECCENTRICITY":0.00093494,"INCLINATION":35.0028,"RA_OF_ASC_NODE":168.8735,"ARG_OF_PERICENTER":247.0598,"MEAN_ANOMALY":112.9131,"EPHEMERIS_TYPE":0,"CLASSIFICATION_TYPE":"U","NORAD_CAT_ID":49393,"ELEMENT_SET_NO":999,"REV_AT_EPOCH":24187,"BSTAR":0.0007564285,"MEAN_MOTION_DOT":0.00018436,"MEAN_MOTION_DDOT":0},{"OBJECT_NAME":"IRIS-F2","OBJECT_ID":"2025-009CD","EPOCH":"2026-03-09T16:59:24.417600","MEAN_MOTION":15.24984435,"ECCENTRICITY":0.00049485,"INCLINATION":97.3936,"RA_OF_ASC_NODE":149.6497,"ARG_OF_PERICENTER":359.0166,"MEAN_ANOMALY":1.1061,"EPHEMERIS_TYPE":0,"CLASSIFICATION_TYPE":"U","NORAD_CAT_ID":62684,"ELEMENT_SET_NO":999,"REV_AT_EPOCH":12129,"BSTAR":0.00032095462,"MEAN_MOTION_DOT":7.938e-5,"MEAN_MOTION_DDOT":0}]
